[{"OBJECT_NAME":"SHIJIAN-6 02B (SJ-6 02B)","OBJECT_ID":"2006-046B","EPOCH":"2026-03-05T18:21:20.128320","MEAN_MOTION":15.00973944,"ECCENTRICITY":0.0014157,"INCLINATION":97.7052,"RA_OF_ASC_NODE":94.531,"ARG_OF_PERICENTER":55.8954,"MEAN_ANOMALY":304.3611,"EPHEMERIS_TYPE":0,"CLASSIFICATION_TYPE":"U","NORAD_CAT_ID":29506,"ELEMENT_SET_NO":999,"REV_AT_EPOCH":5522,"BSTAR":0.00015116,"MEAN_MOTION_DOT":1.871e-5,"MEAN_MOTION_DDOT":0},{"OBJECT_NAME":"FGRST (GLAST)","OBJECT_ID":"2008-029A","EPOCH":"2026-03-05T18:03:54.346176","MEAN_MOTION":15.23294899,"ECCENTRICITY":0.0008277,"INCLINATION":25.5812,"RA_OF_ASC_NODE":202.3523,"ARG_OF_PERICENTER":181.7471,"MEAN_ANOMALY":178.3038,"EPHEMERIS_TYPE":0,"CLASSIFICATION_TYPE":"U","NORAD_CAT_ID":33053,"ELEMENT_SET_NO":999,"REV_AT_EPOCH":98004,"BSTAR":0.00020635,"MEAN_MOTION_DOT":5.378e-5,"MEAN_MOTION_DDOT":0},{"OBJECT_NAME":"SDO","OBJECT_ID":"2010-005A","EPOCH":"2026-03-05T01:46:38.695872","MEAN_MOTION":1.00275503,"ECCENTRICITY":2.902e-5,"INCLINATION":34.432,"RA_OF_ASC_NODE":87.918,"ARG_OF_PERICENTER":60.8021,"MEAN_ANOMALY":298.8471,"EPHEMERIS_TYPE":0,"CLASSIFICATION_TYPE":"U","NORAD_CAT_ID":36395,"ELEMENT_SET_NO":999,"REV_AT_EPOCH":5901,"BSTAR":0,"MEAN_MOTION_DOT":-6.5e-7,"MEAN_MOTION_DDOT":0},{"OBJECT_NAME":"CRYOSAT 2","OBJECT_ID":"2010-013A","EPOCH":"2026-03-05T18:29:20.753376","MEAN_MOTION":14.51906643,"ECCENTRICITY":0.0002116,"INCLINATION":92.0224,"RA_OF_ASC_NODE":252.2444,"ARG_OF_PERICENTER":87.4602,"MEAN_ANOMALY":272.6847,"EPHEMERIS_TYPE":0,"CLASSIFICATION_TYPE":"U","NORAD_CAT_ID":36508,"ELEMENT_SET_NO":999,"REV_AT_EPOCH":84307,"BSTAR":7.519e-5,"MEAN_MOTION_DOT":3.06e-6,"MEAN_MOTION_DDOT":0},{"OBJECT_NAME":"X-SAT","OBJECT_ID":"2011-015C","EPOCH":"2026-03-05T17:47:44.861280","MEAN_MOTION":14.25169921,"ECCENTRICITY":0.0012912,"INCLINATION":98.3421,"RA_OF_ASC_NODE":46.7457,"ARG_OF_PERICENTER":289.2373,"MEAN_ANOMALY":70.7411,"EPHEMERIS_TYPE":0,"CLASSIFICATION_TYPE":"U","NORAD_CAT_ID":37389,"ELEMENT_SET_NO":999,"REV_AT_EPOCH":77294,"BSTAR":7.7408e-6,"MEAN_MOTION_DOT":-2.3e-7,"MEAN_MOTION_DDOT":0},{"OBJECT_NAME":"GCOM-W1 (SHIZUKU)","OBJECT_ID":"2012-025A","EPOCH":"2026-03-04T18:52:37.327296","MEAN_MOTION":14.57089916,"ECCENTRICITY":0.00014998,"INCLINATION":98.2051,"RA_OF_ASC_NODE":5.921,"ARG_OF_PERICENTER":75.5547,"MEAN_ANOMALY":313.9771,"EPHEMERIS_TYPE":0,"CLASSIFICATION_TYPE":"U","NORAD_CAT_ID":38337,"ELEMENT_SET_NO":999,"REV_AT_EPOCH":73383,"BSTAR":0.00021309498,"MEAN_MOTION_DOT":9.15e-6,"MEAN_MOTION_DDOT":0},{"OBJECT_NAME":"NUSTAR","OBJECT_ID":"2012-031A","EPOCH":"2026-03-05T18:00:00.998784","MEAN_MOTION":15.07658587,"ECCENTRICITY":0.0007725,"INCLINATION":6.0273,"RA_OF_ASC_NODE":89.3899,"ARG_OF_PERICENTER":0.0624,"MEAN_ANOMALY":310.8568,"EPHEMERIS_TYPE":0,"CLASSIFICATION_TYPE":"U","NORAD_CAT_ID":38358,"ELEMENT_SET_NO":999,"REV_AT_EPOCH":130,"BSTAR":0.00073712,"MEAN_MOTION_DOT":0.00012447,"MEAN_MOTION_DDOT":0},{"OBJECT_NAME":"NEOSSAT","OBJECT_ID":"2013-009D","EPOCH":"2026-03-05T12:21:03.536928","MEAN_MOTION":14.35783166,"ECCENTRICITY":0.0010784,"INCLINATION":98.4136,"RA_OF_ASC_NODE":247.0206,"ARG_OF_PERICENTER":189.9301,"MEAN_ANOMALY":170.1674,"EPHEMERIS_TYPE":0,"CLASSIFICATION_TYPE":"U","NORAD_CAT_ID":39089,"ELEMENT_SET_NO":999,"REV_AT_EPOCH":68186,"BSTAR":0.00012947,"MEAN_MOTION_DOT":3.32e-6,"MEAN_MOTION_DDOT":0},{"OBJECT_NAME":"BRITE-AUSTRIA","OBJECT_ID":"2013-009F","EPOCH":"2026-03-05T11:52:46.089696","MEAN_MOTION":14.36493326,"ECCENTRICITY":0.0010106,"INCLINATION":98.3951,"RA_OF_ASC_NODE":246.5075,"ARG_OF_PERICENTER":183.5653,"MEAN_ANOMALY":176.5463,"EPHEMERIS_TYPE":0,"CLASSIFICATION_TYPE":"U","NORAD_CAT_ID":39091,"ELEMENT_SET_NO":999,"REV_AT_EPOCH":68216,"BSTAR":0.00013268,"MEAN_MOTION_DOT":3.47e-6,"MEAN_MOTION_DDOT":0},{"OBJECT_NAME":"IRIS","OBJECT_ID":"2013-033A","EPOCH":"2026-03-05T17:18:04.908096","MEAN_MOTION":14.85631828,"ECCENTRICITY":0.0023422,"INCLINATION":97.9396,"RA_OF_ASC_NODE":264.287,"ARG_OF_PERICENTER":299.0463,"MEAN_ANOMALY":60.8405,"EPHEMERIS_TYPE":0,"CLASSIFICATION_TYPE":"U","NORAD_CAT_ID":39197,"ELEMENT_SET_NO":999,"REV_AT_EPOCH":68501,"BSTAR":0.00024803,"MEAN_MOTION_DOT":2.102e-5,"MEAN_MOTION_DDOT":0},{"OBJECT_NAME":"HISAKI (SPRINT-A)","OBJECT_ID":"2013-049A","EPOCH":"2026-03-05T13:52:01.597728","MEAN_MOTION":13.55530232,"ECCENTRICITY":0.0136713,"INCLINATION":29.7221,"RA_OF_ASC_NODE":26.7605,"ARG_OF_PERICENTER":256.7793,"MEAN_ANOMALY":101.7495,"EPHEMERIS_TYPE":0,"CLASSIFICATION_TYPE":"U","NORAD_CAT_ID":39253,"ELEMENT_SET_NO":999,"REV_AT_EPOCH":61735,"BSTAR":7.2972e-5,"MEAN_MOTION_DOT":1.21e-6,"MEAN_MOTION_DDOT":0},{"OBJECT_NAME":"CASSIOPE","OBJECT_ID":"2013-055A","EPOCH":"2026-03-05T17:34:21.286848","MEAN_MOTION":15.18412661,"ECCENTRICITY":0.0316881,"INCLINATION":80.919,"RA_OF_ASC_NODE":191.6983,"ARG_OF_PERICENTER":49.4043,"MEAN_ANOMALY":313.4297,"EPHEMERIS_TYPE":0,"CLASSIFICATION_TYPE":"U","NORAD_CAT_ID":39265,"ELEMENT_SET_NO":999,"REV_AT_EPOCH":65193,"BSTAR":0.00046196,"MEAN_MOTION_DOT":0.00038383,"MEAN_MOTION_DDOT":-5.928e-7},{"OBJECT_NAME":"STSAT-3","OBJECT_ID":"2013-066G","EPOCH":"2026-03-05T17:58:17.732640","MEAN_MOTION":15.02045311,"ECCENTRICITY":0.0011865,"INCLINATION":97.6061,"RA_OF_ASC_NODE":36.4468,"ARG_OF_PERICENTER":28.0281,"MEAN_ANOMALY":332.158,"EPHEMERIS_TYPE":0,"CLASSIFICATION_TYPE":"U","NORAD_CAT_ID":39422,"ELEMENT_SET_NO":999,"REV_AT_EPOCH":66867,"BSTAR":0.00034767,"MEAN_MOTION_DOT":4.509e-5,"MEAN_MOTION_DDOT":0},{"OBJECT_NAME":"SWARM B","OBJECT_ID":"2013-067A","EPOCH":"2026-03-05T19:18:52.490016","MEAN_MOTION":15.27813257,"ECCENTRICITY":0.0003699,"INCLINATION":87.7492,"RA_OF_ASC_NODE":13.6654,"ARG_OF_PERICENTER":89.0525,"MEAN_ANOMALY":271.1148,"EPHEMERIS_TYPE":0,"CLASSIFICATION_TYPE":"U","NORAD_CAT_ID":39451,"ELEMENT_SET_NO":999,"REV_AT_EPOCH":66745,"BSTAR":0.00023509,"MEAN_MOTION_DOT":6.415e-5,"MEAN_MOTION_DDOT":0},{"OBJECT_NAME":"SWARM A","OBJECT_ID":"2013-067B","EPOCH":"2026-03-05T17:11:58.783776","MEAN_MOTION":15.48643592,"ECCENTRICITY":0.000304,"INCLINATION":87.3286,"RA_OF_ASC_NODE":94.6303,"ARG_OF_PERICENTER":93.874,"MEAN_ANOMALY":266.2867,"EPHEMERIS_TYPE":0,"CLASSIFICATION_TYPE":"U","NORAD_CAT_ID":39452,"ELEMENT_SET_NO":999,"REV_AT_EPOCH":69022,"BSTAR":0.00023479,"MEAN_MOTION_DOT":0.00012583,"MEAN_MOTION_DDOT":0},{"OBJECT_NAME":"SWARM C","OBJECT_ID":"2013-067C","EPOCH":"2026-03-05T17:11:49.413696","MEAN_MOTION":15.48643218,"ECCENTRICITY":0.0003056,"INCLINATION":87.3283,"RA_OF_ASC_NODE":93.2119,"ARG_OF_PERICENTER":93.7764,"MEAN_ANOMALY":266.3845,"EPHEMERIS_TYPE":0,"CLASSIFICATION_TYPE":"U","NORAD_CAT_ID":39453,"ELEMENT_SET_NO":999,"REV_AT_EPOCH":69018,"BSTAR":0.00023666,"MEAN_MOTION_DOT":0.00012683,"MEAN_MOTION_DDOT":0},{"OBJECT_NAME":"BRITE-CA1 (TORONTO)","OBJECT_ID":"2014-033L","EPOCH":"2026-03-04T07:53:05.506944","MEAN_MOTION":14.72445502,"ECCENTRICITY":0.007771,"INCLINATION":97.9558,"RA_OF_ASC_NODE":194.3075,"ARG_OF_PERICENTER":252.31,"MEAN_ANOMALY":106.9613,"EPHEMERIS_TYPE":0,"CLASSIFICATION_TYPE":"U","NORAD_CAT_ID":40020,"ELEMENT_SET_NO":999,"REV_AT_EPOCH":62678,"BSTAR":0.00029920168,"MEAN_MOTION_DOT":1.935e-5,"MEAN_MOTION_DDOT":0}]
