SHIJIAN-6 02B (SJ-6 02B)
1 29506U 06046B   26064.76481630  .00001871  00000+0  15116-3 0  9994
2 29506  97.7052  94.5310 0014157  55.8954 304.3611 15.00973944 55224
FGRST (GLAST)           
1 33053U 08029A   26064.75271234  .00005378  00000+0  20635-3 0  9993
2 33053  25.5812 202.3523 0008277 181.7471 178.3038 15.23294899980042
SDO                     
1 36395U 10005A   26064.07405898 -.00000065  00000+0  00000+0 0  9991
2 36395  34.4320  87.9180 0000290  60.8021 298.8471  1.00275503 59012
CRYOSAT 2               
1 36508U 10013A   26064.77037909  .00000306  00000+0  75190-4 0  9991
2 36508  92.0224 252.2444 0002116  87.4602 272.6847 14.51906643843070
X-SAT                   
1 37389U 11015C   26064.74149145 -.00000023  00000+0  77408-5 0  9997
2 37389  98.3421  46.7457 0012912 289.2373  70.7411 14.25169921772940
GCOM-W1 (SHIZUKU)       
1 38337U 12025A   26063.78654314  .00000915  00000+0  21309-3 0  9991
2 38337  98.2051   5.9210 0001499  75.5547 313.9771 14.57089916733839
NUSTAR                  
1 38358U 12031A   26064.75001156  .00012447  00000+0  73712-3 0  9997
2 38358   6.0273  89.3899 0007725   0.0624 310.8568 15.07658587  1303
NEOSSAT                 
1 39089U 13009D   26064.51462427  .00000332  00000+0  12947-3 0  9994
2 39089  98.4136 247.0206 0010784 189.9301 170.1674 14.35783166681863
BRITE-AUSTRIA           
1 39091U 13009F   26064.49497789  .00000347  00000+0  13268-3 0  9996
2 39091  98.3951 246.5075 0010106 183.5653 176.5463 14.36493326682163
IRIS                    
1 39197U 13033A   26064.72089014  .00002102  00000+0  24803-3 0  9992
2 39197  97.9396 264.2870 0023422 299.0463  60.8405 14.85631828685018
HISAKI (SPRINT-A)       
1 39253U 13049A   26064.57779627  .00000121  00000+0  72972-4 0  9991
2 39253  29.7221  26.7605 0136713 256.7793 101.7495 13.55530232617351
CASSIOPE                
1 39265U 13055A   26064.73219082  .00038383 -59280-6  46196-3 0  9994
2 39265  80.9190 191.6983 0316881  49.4043 313.4297 15.18412661651930
STSAT-3                 
1 39422U 13066G   26064.74881635  .00004509  00000+0  34767-3 0  9993
2 39422  97.6061  36.4468 0011865  28.0281 332.1580 15.02045311668671
SWARM B                 
1 39451U 13067A   26064.80477419  .00006415  00000+0  23509-3 0  9994
2 39451  87.7492  13.6654 0003699  89.0525 271.1148 15.27813257667455
SWARM A                 
1 39452U 13067B   26064.71665259  .00012583  00000+0  23479-3 0  9995
2 39452  87.3286  94.6303 0003040  93.8740 266.2867 15.48643592690225
SWARM C                 
1 39453U 13067C   26064.71654414  .00012683  00000+0  23666-3 0  9996
2 39453  87.3283  93.2119 0003056  93.7764 266.3845 15.48643218690182
BRITE-CA1 (TORONTO)     
1 40020U 14033L   26063.32853596  .00001935  00000+0  29920-3 0  9997
2 40020  97.9558 194.3075 0077710 252.3100 106.9613 14.72445502626784
